#aV2007  7  3  0  0   .00000000      96 DD+AD WGS84 FIT  NGA
## 1434 172800.00000000   900.00000000 54284  .0000000000000
+   30     1  2  3  4  5  6  7  8  9 10 11 12 13 14 16 17 18
+         19 20 21 22 23 24 25 26 27 28 29 30 31  0  0  0  0
+          0  0  0  0  0  0  0  0  0  0  0  0  0  0  0  0  0
+          0  0  0  0  0  0  0  0  0  0  0  0  0  0  0  0  0
+          0  0  0  0  0  0  0  0  0  0  0  0  0  0  0  0  0
++         0  0  0  0  0  0  0  0  0  0  0  0  0  0  0  0  0
++         0  0  0  0  0  0  0  0  0  0  0  0  0  0  0  0  0
++         0  0  0  0  0  0  0  0  0  0  0  0  0  0  0  0  0
++         0  0  0  0  0  0  0  0  0  0  0  0  0  0  0  0  0
++         0  0  0  0  0  0  0  0  0  0  0  0  0  0  0  0  0
%c cc cc ccc ccc cccc cccc cccc cccc ccccc ccccc ccccc ccccc
%c cc cc ccc ccc cccc cccc cccc cccc ccccc ccccc ccccc ccccc
%f  0.0000000  0.000000000  0.00000000000  0.000000000000000
%f  0.0000000  0.000000000  0.00000000000  0.000000000000000
%i    0    0    0    0      0      0      0      0         0
%i    0    0    0    0      0      0      0      0         0
/*      NGA, ST. LOUIS,MO.                                  
/*   EPHEMERIS COMPUTED FROM  3 DAYS OF DATA                
/* CCCCCCCCCCCCCCCCCCCCCCCCCCCCCCCCCCCCCCCCCCCCCCCCCCCCCCCCC
/* CCCCCCCCCCCCCCCCCCCCCCCCCCCCCCCCCCCCCCCCCCCCCCCCCCCCCCCCC
*  2007  7  3 18 45   .00000000                                                 
P  1    -89.837947 -14907.527102  22178.596079    137.744933                    
V  1  26947.169934  -5941.533487  -3986.942200       .022093                    
P  2  10529.368748  21587.265941  11448.961827    118.850103                    
V  2 -12463.847490  -8354.875075  26446.384872       .028305                    
P  3  -7831.219843 -14148.541393 -21296.741484     81.309875                    
V  3  24781.394345  -9894.437182  -2224.435781       .055172                    
P  4  -1367.525244  18168.912841  19135.084603      7.933067                    
V  4 -18603.545152 -16198.023085  14354.816495      -.012159                    
P  5  15416.363722   1994.488921  21293.383527    134.125296                    
V  5  -4300.946466  27351.655528    697.670211       .475140                    
P  6  25714.520115  -6289.537440   2608.755448    228.273124                    
V  6  -1828.970016   4398.232845  30867.643327       .074759                    
P  7  25055.357269  -8894.057574    -90.712490    223.956323                    
V  7   1691.076083   3223.458264  31127.468927      -.197370                    
P  8 -10524.395397  10509.856193 -22110.783885   -113.488896                    
V  8 -19130.727116 -20111.419357   -889.376889      -.015114                    
P  9  21451.282524  14908.963744   4781.526531     77.131498                    
V  9   3382.895619   6394.342216 -30974.957364       .016787                    
P 10   2515.095760  23147.738114 -12593.052786    104.172562                    
V 10  -6492.035545  14707.963228  26286.648041       .005242                    
P 11 -23762.095420 -10735.032055   5700.282821     19.740158                    
V 11  -3564.267612  -7886.629223 -28849.462389       .008159                    
P 12  13431.317346   8126.740968  21535.994133    -48.421503                    
V 12  -7041.901391  26159.234444  -5443.214208      -.010445                    
P 13 -25875.878040   5853.917230    664.476447    186.840615                    
V 13    525.755647  -1955.250562  32490.477056       .032362                    
P 14  15286.145636 -14804.299281  15918.001019     28.076576                    
V 14  19746.618558  -3701.170644 -22600.919425       .019427                    
P 16   1749.602134 -25433.732933  -7073.693835    160.076132                    
V 16   4991.121223  -8109.456385  30196.358663       .026919                    
P 17 -17084.196183  14789.022316  13869.559610     62.493202                    
V 17 -17615.051828   2465.866131 -24488.840517      -.012916                    
P 18  15984.683069 -13143.257079 -16304.944370   -245.524013                    
V 18  -3839.778008  20906.750160 -20778.847799       .011821                    
P 19 -17156.489231  -9286.065030 -17978.976915     47.834571                    
V 19  22157.840524  -6367.662756 -17632.933962       .030270                    
P 20 -14406.995581  -5548.582789  21509.498580    -26.351106                    
V 20   6646.108557 -26777.628253  -2412.383560      -.004386                    
P 21  17566.532116  -2641.409410 -19776.809512     78.402166                    
V 21  16809.434389  18960.123893  11733.900127       .002352                    
P 22  11676.860489 -22947.793772  -6282.140009    189.267010                    
V 22    550.310082   8734.470274 -30183.064696       .015037                    
P 23 -24416.718350   -662.888071  10606.504172    178.801361                    
V 23  12442.421623  -5645.124549  27857.011147       .031637                    
P 24  20971.523077   8914.655430 -13196.009650     12.336783                    
V 24   9778.221915  14409.542356  25174.190441       .029845                    
P 25 -21015.200542  -2968.747480 -15508.143703    348.936552                    
V 25 -14544.756192 -14501.337084  22118.606324       .187160                    
P 26  14180.822135  10352.724066 -20550.864650   -285.905709                    
V 26 -24056.670437   6241.853939 -13213.413542      -.218618                    
P 27 -17131.446977   3077.864617 -19485.882173    120.418352                    
V 27 -19010.844556 -17899.660060  13225.493799       .021790                    
P 28 -12805.755454  20776.000000  -9704.460088     -2.246498                    
V 28    734.375656 -13211.065987 -28607.537610      -.007664                    
P 29   9689.312476  11963.820691 -21498.023136      4.233292                    
V 29 -26516.726280   7785.740031  -7181.695074       .002944                    
P 30  15992.358157  -4991.119981  20273.812214     38.453771                    
V 30  -4431.491629  26177.028792   9899.724979       .011321                    
P 31  -1174.473934 -19096.657518  18587.650350     16.597062                    
V 31  17709.065466  15088.361519  16868.281054      -.009910                    
EOF
